{
"type": "FeatureCollection",
"name": "fbg",
"crs": { "type": "name", "properties": { "name": "urn:ogc:def:crs:OGC:1.3:CRS84" } },
"features": [
{ "type": "Feature", "properties": { "id": "fbg", "name": "Fitchburg, MA", "short_name": "FBG", "kind": "city_region", "region_type": "Municipal Regions", "boundary_basis": "Existing political boundary represented by a U.S. Census county subdivision boundary", "notes": "Covers the City of Fitchburg; overlaps BOS and the statewide MA region.", "draft": false, "source": "U.S. Census Bureau 2024 cartographic boundary files", "coordinator": "[Old Growth Co-op]" }, "geometry": { "type": "Polygon", "coordinates": [ [ [ -71.862509540495921, 42.55247365940221 ], [ -71.855592583485475, 42.55205466512276 ], [ -71.855486571079496, 42.553509662708635 ], [ -71.855132530269898, 42.558290654792025 ], [ -71.86234449291203, 42.558049649771363 ], [ -71.862084446427971, 42.563549640357607 ], [ -71.860591208202536, 42.591636592678285 ], [ -71.858659886361835, 42.629026529842278 ], [ -71.858483844582324, 42.633814521769125 ], [ -71.844843844430827, 42.637984530702376 ], [ -71.794186991349747, 42.637024591964689 ], [ -71.775326046972211, 42.636662614646546 ], [ -71.77345231288605, 42.614567644923468 ], [ -71.77150441821108, 42.606270657437868 ], [ -71.770888451577108, 42.603661661340539 ], [ -71.771521569540354, 42.593516673492907 ], [ -71.771971657086397, 42.585970682595637 ], [ -71.77294384565667, 42.569647702412141 ], [ -71.764896968841484, 42.562842717308811 ], [ -71.762951966018164, 42.56392371751167 ], [ -71.761452979888332, 42.563435719276747 ], [ -71.75724901905248, 42.56206772418426 ], [ -71.755877037527227, 42.561169726303504 ], [ -71.754098068468608, 42.559455729672791 ], [ -71.749982174409141, 42.552808740371354 ], [ -71.747771189121622, 42.549934741005856 ], [ -71.749871211819254, 42.549758743729981 ], [ -71.749681267445141, 42.545201748742976 ], [ -71.754168235313642, 42.546051745259973 ], [ -71.757768183008778, 42.548567739795907 ], [ -71.759836180153158, 42.547821739236745 ], [ -71.761953143560916, 42.549807735357966 ], [ -71.761590120047785, 42.551903733085958 ], [ -71.76327908649246, 42.553872729475472 ], [ -71.764289066470226, 42.555055727292576 ], [ -71.769182002265978, 42.558141719835433 ], [ -71.771343977291593, 42.559247716813054 ], [ -71.773387979706413, 42.558101716715818 ], [ -71.776460983030205, 42.556378716617139 ], [ -71.783376989150852, 42.552501716602386 ], [ -71.786024990664586, 42.551046716633721 ], [ -71.78937197281283, 42.550930714395818 ], [ -71.793181941988152, 42.551740710556551 ], [ -71.797580907304194, 42.552617706164007 ], [ -71.800619899683909, 42.551732705217269 ], [ -71.803753912296543, 42.548896707028355 ], [ -71.806547911269377, 42.547471707125347 ], [ -71.813465872726411, 42.547287702581002 ], [ -71.820736837975488, 42.546517698698764 ], [ -71.822333827098433, 42.54666469736938 ], [ -71.830881753809592, 42.549017687737283 ], [ -71.831690748975475, 42.549032687143416 ], [ -71.832832742660699, 42.549001686387818 ], [ -71.837124722110588, 42.548550684090991 ], [ -71.837808763706903, 42.543782691318867 ], [ -71.862954605425813, 42.5447026726942 ], [ -71.862509540495921, 42.55247365940221 ] ] ] } }
]
}
