{
"type": "FeatureCollection",
"name": "northbridge",
"crs": { "type": "name", "properties": { "name": "urn:ogc:def:crs:OGC:1.3:CRS84" } },
"features": [
{ "type": "Feature", "properties": { "id": "northbridge", "name": "Northbridge, MA", "short_name": "NORTHBRIDGE", "kind": "city_region", "region_type": "Municipal Regions", "boundary_basis": "Existing political boundary represented by a U.S. Census county subdivision boundary", "notes": "Covers the Town of Northbridge; overlaps BOS and the statewide MA region.", "draft": false, "source": "U.S. Census Bureau 2024 cartographic boundary files", "coordinator": "[yellowcooln], [DeputyDawg]" }, "geometry": { "type": "Polygon", "coordinates": [ [ [ -71.697565845653017, 42.113131143825207 ], [ -71.692010846811755, 42.120292148476011 ], [ -71.694132849223948, 42.121126142796697 ], [ -71.70464086108494, 42.125254115563301 ], [ -71.693713860976359, 42.136159126507479 ], [ -71.691401869678245, 42.149201115585811 ], [ -71.692366874536532, 42.154296107957705 ], [ -71.69368788111629, 42.161214097851904 ], [ -71.691418880931678, 42.163108099085079 ], [ -71.679010873807542, 42.165789113953529 ], [ -71.673457869635243, 42.165772122054079 ], [ -71.672327868787391, 42.165770123700689 ], [ -71.642168846107836, 42.165662167786373 ], [ -71.628126821283317, 42.149912223868199 ], [ -71.605782780345521, 42.124857328619733 ], [ -71.602269778219409, 42.125628334093562 ], [ -71.598982772733464, 42.122678349259886 ], [ -71.597635771800356, 42.12285335172092 ], [ -71.592748766646935, 42.121648365853382 ], [ -71.592634759406351, 42.114238387347733 ], [ -71.595987760624098, 42.112605384116151 ], [ -71.59736376138359, 42.112201381994446 ], [ -71.597870761674244, 42.112063381177748 ], [ -71.5981497618247, 42.111977380755206 ], [ -71.598650762069639, 42.11179638006783 ], [ -71.598960762313936, 42.111781379373355 ], [ -71.601952764383526, 42.111332373486206 ], [ -71.603531766438934, 42.11211036763958 ], [ -71.623400776615213, 42.105134336924849 ], [ -71.646837789166668, 42.096887294660924 ], [ -71.650870791412714, 42.095496286671541 ], [ -71.654062794903808, 42.096356276642638 ], [ -71.657253798393981, 42.097226266692203 ], [ -71.679971822968227, 42.103396198617105 ], [ -71.68505083015981, 42.106924181273008 ], [ -71.685541830851975, 42.107265179628733 ], [ -71.691034834007297, 42.105452168324888 ], [ -71.707691843858768, 42.100070131868073 ], [ -71.697565845653017, 42.113131143825207 ] ] ] } }
]
}
